{
  "type": "FeatureCollection",
  "features": [
    {
      "type": "Feature",
      "properties": {
        "name": "Sentinel-1 SAR Observed Flood Extent (Sardar Sarovar)",
        "acquisition_date": "2026-09-10T06:00:00Z",
        "area_km2": 38.5
      },
      "geometry": {
        "type": "Polygon",
        "coordinates": [
          [
            [73.7486, 21.8315],
            [73.7250, 21.8380],
            [73.7000, 21.8450],
            [73.6700, 21.8550],
            [73.6400, 21.8650],
            [73.6100, 21.8750],
            [73.5800, 21.8850],
            [73.5900, 21.8950],
            [73.6200, 21.8850],
            [73.6500, 21.8750],
            [73.6800, 21.8650],
            [73.7100, 21.8550],
            [73.7350, 21.8450],
            [73.7486, 21.8315]
          ]
        ]
      }
    }
  ]
}
